CCSDS_OEM_VERS = 2.0  
CREATION_DATE  = 2026-02-27T09:26:36
ORIGINATOR     = ESOC/OPS-GFA                            
 
 



META_START
OBJECT_NAME          = LISA                                    
OBJECT_ID            = -1000                                   
CENTER_NAME          = SUN                     
REF_FRAME            = EME2000 
TIME_SYSTEM          = TCB
START_TIME           = 2036-12-23T00:00:30.346418            
STOP_TIME            = 2047-09-08T06:21:02.186079            
INTERPOLATION        = HERMITE                                 
INTERPOLATION_DEGREE = 7                                       
META_STOP

2037-09-03T15:10:35.920202     1.19196999190610841e+08   -8.43191893578226417e+07   -3.52671530720048472e+07    1.80090511123269827e+01    2.16517778467140687e+01    9.29614225973955222e+00   -4.66792236860693178e-06    3.30219743220321116e-06    1.38116847213450331e-06
2037-09-04T11:21:07.771586     1.20492672267003164e+08   -8.27379246059542298e+07   -3.45883371966568381e+07    1.76681510737118650e+01    2.18893857724167908e+01    9.39549872249342322e+00   -4.71898680498151725e-06    3.24049254548966307e-06    1.35467683679583612e-06
2037-09-05T07:31:39.622969     1.21763451303085893e+08   -8.11395653013144135e+07   -3.39023750019130632e+07    1.73235767428361456e+01    2.21224875865571882e+01    9.49292085558113108e+00   -4.76909643857088898e-06    3.17811858407383182e-06    1.32790538895685276e-06
2037-09-06T03:42:11.474353     1.23009071918803364e+08   -7.95244404766789079e+07   -3.32094077117146924e+07    1.69753978408048489e+01    2.23510351348807959e+01    9.58838852547181908e+00   -4.81824105170294992e-06    3.11508773587439859e-06    1.30085936268974664e-06
2037-09-06T23:52:43.325736     1.24229274843549699e+08   -7.78928826346434504e+07   -3.25095780003313832e+07    1.66236848249634086e+01    2.25749811528510236e+01    9.68188198069092287e+00   -4.86641059147086444e-06    3.05141231322570909e-06    1.27354404462151981e-06
2037-09-07T20:03:15.177121     1.25423805976989180e+08   -7.62452276840364188e+07   -3.18030299650161192e+07    1.62685088764046135e+01    2.27942792748479874e+01    9.77338185570190809e+00   -4.91359518355656571e-06    2.98710475698015312e-06    1.24596477555791776e-06
2037-09-08T16:13:47.028505     1.26592416435316697e+08   -7.45818148729897738e+07   -3.10899090973052159e+07    1.59099418866149094e+01    2.30088840435851516e+01    9.86286917487220549e+00   -4.95978514210420626e-06    2.92217763840169663e-06    1.21812695117762161e-06
2037-09-09T12:24:18.879888     1.27734862588275626e+08   -7.29029867197066993e+07   -3.03703622533810362e+07    1.55480564435464199e+01    2.32187509195836483e+01    9.95032535645596816e+00   -5.00497097566238802e-06    2.85664365886272134e-06    1.19003602180188265e-06
2037-09-10T08:34:50.731272     1.28850906092249826e+08   -7.12090889419657737e+07   -2.96445376239145622e+07    1.51829258174011184e+01    2.34238362905442088e+01    1.00357322165262612e+01   -5.04914338916494296e-06    2.79051564732437541e-06    1.16169749123126385e-06
2037-09-11T04:45:22.582656     1.29940313924747229e+08   -6.95004703863999397e+07   -2.89125847038052753e+07    1.48146239464134517e+01    2.36240974804565340e+01    1.01190719727892873e+01   -5.09229328199261506e-06    2.72380655562758686e-06    1.13311691466084468e-06
2037-09-12T00:55:54.434039     1.31002858425591871e+08   -6.77774829585899562e+07   -2.81746542622355595e+07    1.44432254229178660e+01    2.38194927582860814e+01    1.02003272482132701e+01   -5.13441174207962189e-06    2.65652945157380267e-06    1.10429989566512743e-06
2037-09-12T21:06:26.285424     1.32038317350141510e+08   -6.60404815550112724e+07   -2.74308983134569898e+07    1.40688054799875975e+01    2.40099813460780922e+01    1.02794810744045968e+01   -5.17549003605144847e-06    2.58869750978046172e-06    1.07525208224651044e-06
2037-09-13T17:16:58.136807     1.33046473939847797e+08   -6.42898239978730828e+07   -2.66814700887258649e+07    1.36914399789310330e+01    2.41955234263187755e+01    1.03565168946638622e+01   -5.21551959548868921e-06    2.52032400038223935e-06    1.04597916197674728e-06
2037-09-14T13:27:29.988191     1.34027117015476435e+08   -6.25258709738889337e+07   -2.59265240098051429e+07    1.33112053979322393e+01    2.43760801483936014e+01    1.04314185666543562e+01   -5.25449199918377368e-06    2.45142227548269651e-06    1.01648685619177450e-06
2037-09-15T09:38:01.839575     1.34980041098303854e+08   -6.07489859780180901e+07   -2.51662156644503400e+07    1.29281788221216765e+01    2.45516136339824627e+01    1.05041703646157139e+01   -5.29239895143041009e-06    2.38200575338278841e-06    9.86780913250960750e-07
2037-09-16T05:52:57.597712     1.35908356115898758e+08   -5.89530108164920583e+07   -2.43979109853624105e+07    1.25410314804362812e+01    2.47226971336688521e+01    1.05750094947066327e+01   -5.32936465636527435e-06    2.31183329147313757e-06    9.56758176449697627e-07
2037-09-17T02:07:53.355850     1.36808352498948246e+08   -5.71447512762965411e+07   -2.36245223845042139e+07    1.21512291423606733e+01    2.48886473811076101e+01    1.06436526462194561e+01   -5.36524132145529140e-06    2.24116991521650253e-06    9.26532075522530954e-07
2037-09-17T22:22:49.113987     1.37679839640936077e+08   -5.53245828373695463e+07   -2.28462104724462442e+07    1.17588514719256310e+01    2.50494291000888261e+01    1.07100852127403545e+01   -5.40002135174000188e-06    2.17002961357479839e-06    8.96108596415847686e-07
2037-09-18T18:37:44.872124     1.38522632700458646e+08   -5.34928835163963661e+07   -2.20631369099197164e+07    1.13639786815194590e+01    2.52050080372535774e+01    1.07742930254839848e+01   -5.43369730135309290e-06    2.09842646201586171e-06    8.65493760597900266e-07
2037-09-19T14:52:40.630261     1.39336552694600940e+08   -5.16500337907499298e+07   -2.12754643750341870e+07    1.09666915201780633e+01    2.53553509685996659e+01    1.08362623559690210e+01   -5.46626189584724388e-06    2.02637462769500129e-06    8.34693627295253126e-07
2037-09-20T11:07:36.388399     1.40121426565728009e+08   -4.97964165224683732e+07   -2.04833565306352079e+07    1.05670712603977677e+01    2.55004257063091302e+01    1.08959799188330368e+01   -5.49770805049483335e-06    1.95388837315662921e-06    8.03714295102137143e-07
2037-09-21T07:22:32.146536     1.40877087227288067e+08   -4.79324168821327537e+07   -1.96869779917177260e+07    1.01651996837605765e+01    2.56402011057917250e+01    1.09534328747418659e+01   -5.52802888457086083e-06    1.88098205855671156e-06    7.72561902962968036e-07
2037-09-22T03:37:27.904673     1.41603373594213009e+08   -4.60584222725235820e+07   -1.88864942928175293e+07    9.76115906566502467e+00    2.57746470728363199e+01    1.10086088333476830e+01   -5.55721773160771223e-06    1.80767014240241664e-06    7.41242630526576081e-07
2037-09-22T23:52:23.662811     1.42300130603502095e+08   -4.41748222519349307e+07   -1.80820718553031981e+07    9.35503215945571576e+00    2.59037345707624382e+01    1.10614958562500956e+01   -5.58526814564077246e-06    1.73396718081592079e-06    7.09762697874934385e-07
2037-09-23T20:07:19.420949     1.42967209230574042e+08   -4.22820084570247531e+07   -1.72738779544909783e+07    8.94690218024469885e+00    2.60274356274639480e+01    1.11120824599145145e+01   -5.61217390341273726e-06    1.65988782531026962e-06    6.78128364621530429e-07
2037-09-24T16:22:15.179086     1.43604466506973475e+08   -4.03803745250802487e+07   -1.64620806865049712e+07    8.53685278871782671e+00    2.61457233422369910e+01    1.11603576185020703e+01   -5.63792900258325060e-06    1.58544681909433131e-06    6.46345928386222685e-07
2037-09-25T12:37:10.937223     1.44211765545017034e+08   -3.84703160155769140e+07   -1.56468489348050430e+07    8.12496807521917574e+00    2.62585718922842872e+01    1.12063107665653590e+01   -5.66252765589852286e-06    1.51065899189196804e-06    6.14421722640679328e-07
2037-09-26T08:52:06.695361     1.44788975574965090e+08   -3.65522303309101164e+07   -1.48283523363049161e+07    7.71133254440671401e+00    2.63659565387878772e+01    1.12499318015642729e+01   -5.68596428134104319e-06    1.43553925328010177e-06    5.82362113926105402e-07
2037-09-27T05:07:02.453498     1.45335972000304192e+08   -3.46265166361777037e+07   -1.40067612470027972e+07    7.29603110077229733e+00    2.64678536324423455e+01    1.12912110861562098e+01   -5.70823348825944637e-06    1.36010258454498392e-06    5.50173498443067098e-07
2037-09-28T01:21:58.211635     1.45852636476726472e+08   -3.26935757778925598e+07   -1.31822467070468999e+07    6.87914903531916977e+00    2.65642406183407473e+01    1.13301394502149151e+01   -5.72933005950727471e-06    1.28436402907527497e-06    5.17862298021151026e-07
2037-09-28T21:36:53.969772     1.46338857020390958e+08   -3.07538102015039437e+07   -1.23549804051585831e+07    6.46077201369006815e+00    2.66550960401051249e+01    1.13667081925322311e+01   -5.74924892945436952e-06    1.20833868122587696e-06    4.85434955441118137e-07
2037-09-29T17:49:34.623609     1.46793711628451079e+08   -2.88112366241132990e+07   -1.15266749616178963e+07    6.04176532505217878e+00    2.67402465963215654e+01    1.14008478922830303e+01   -5.76795209946389842e-06    1.13218353127967928e-06    4.52958416459212056e-07
2037-09-30T14:02:15.277445     1.47218030586032778e+08   -2.68626692527364492e+07   -1.06959715506645646e+07    5.62144077235699591e+00    2.68198466732237364e+01    1.14326208009065553e+01   -5.78547285944865200e-06    1.05577306708809751e-06    4.20379143298422861e-07
2037-10-01T10:14:55.931281     1.47611721167257249e+08   -2.49085125953713395e+07   -9.86304264299939573e+06    5.19988454063802585e+00    2.68938782495797568e+01    1.14620196803925491e+01   -5.80180705503400493e-06    9.79122570437170645e-07    3.87703654406763887e-07
